GLOBALSTAR M084         
1 38040U 11080A   25316.31280602 -.00000072  00000+0  17492-3 0  9999
2 38040  52.0022 317.5267 0000515  34.8183  66.8665 12.62265046641379
GLOBALSTAR M080         
1 38041U 11080B   25316.26479337 -.00000057  00000+0  25889-3 0  9991
2 38041  52.0073 319.3163 0000662 110.6489 262.3592 12.62270785641497
GLOBALSTAR M082         
1 38042U 11080C   25316.31347845 -.00000078  00000+0  14630-3 0  9991
2 38042  52.0077 274.6446 0000594  93.6317  70.7941 12.62264794642205
GLOBALSTAR M092         
1 38043U 11080D   25316.09640603 -.00000088  00000+0  85903-4 0  9998
2 38043  52.0108   5.6907 0000403 103.8945 272.9794 12.62267599640638
GLOBALSTAR M090         
1 38044U 11080E   25316.25700813 -.00000072  00000+0  17834-3 0  9997
2 38044  52.0128 268.7030 0000425  66.4069  80.3191 12.62264084642310
GLOBALSTAR M086         
1 38045U 11080F   25316.02882130 -.00000075  00000+0  15897-3 0  9996
2 38045  51.9900 269.6805 0000737 317.7198 119.3583 12.62279416642232
GLOBALSTAR M097         
1 39072U 13005A   25316.03965885 -.00000096  00000+0  42331-4 0  9993
2 39072  52.0026 184.3533 0000771  83.3895 276.7060 12.62267192589486
GLOBALSTAR M093         
1 39073U 13005B   25316.01364079 -.00000097  00000+0  37937-4 0  9997
2 39073  52.0083 177.6976 0000675  98.5236 261.5707 12.62270396589431
